[{"OBJECT_NAME":"VIZARD-METEO (RS38S)","OBJECT_ID":"2023-091Z","EPOCH":"2026-03-09T23:01:09.168960","MEAN_MOTION":15.32764799,"ECCENTRICITY":0.00087615,"INCLINATION":97.5192,"RA_OF_ASC_NODE":136.6522,"ARG_OF_PERICENTER":71.7666,"MEAN_ANOMALY":288.4529,"EPHEMERIS_TYPE":0,"CLASSIFICATION_TYPE":"U","NORAD_CAT_ID":57189,"ELEMENT_SET_NO":999,"REV_AT_EPOCH":14947,"BSTAR":0.00066106249,"MEAN_MOTION_DOT":0.00020895,"MEAN_MOTION_DDOT":0},{"OBJECT_NAME":"STARLINK-32211","OBJECT_ID":"2024-131R","EPOCH":"2026-03-09T22:42:33.679296","MEAN_MOTION":15.30190646,"ECCENTRICITY":0.00011593,"INCLINATION":53.1608,"RA_OF_ASC_NODE":51.5513,"ARG_OF_PERICENTER":90.7986,"MEAN_ANOMALY":269.3148,"EPHEMERIS_TYPE":0,"CLASSIFICATION_TYPE":"U","NORAD_CAT_ID":60270,"ELEMENT_SET_NO":999,"REV_AT_EPOCH":9175,"BSTAR":1.1597233e-5,"MEAN_MOTION_DOT":-1.6e-7,"MEAN_MOTION_DDOT":0}]
